{"epoch":1784710044,"count":18256,"objects":[{"id":"44299","name":"COSMOS 2534 (GLONASS)","type":"PAYLOAD","l1":"1 44299U 19030A   26202.40378470  .00000091  00000-0  00000-0 0  9996","l2":"2 44299  64.3710 191.4642 0013453 275.0116 193.9671  2.13102247 55655"},{"id":"44337","name":"BEIDOU 3 IGSO-2","type":"PAYLOAD","l1":"1 44337U 19035A   26202.76760661 -.00000106  00000-0  00000+0 0  9997","l2":"2 44337  55.2573 158.5594 0039051 212.8700 322.7485  1.00289985 26017"},{"id":"44506","name":"NAVSTAR 78 (USA 293)","type":"PAYLOAD","l1":"1 44506U 19056A   26202.04950725 -.00000110  00000-0  00000-0 0  9997","l2":"2 44506  55.6187 329.7967 0063671 198.2481 160.1560  2.00570401 50746"},{"id":"44542","name":"BEIDOU 3M23","type":"PAYLOAD","l1":"1 44542U 19061A   26202.07053170  .00000079  00000-0  00000-0 0  9997","l2":"2 44542  54.3973 181.5850 0008711   0.1669 359.8142  1.86229270 46424"},{"id":"44543","name":"BEIDOU 3M24","type":"PAYLOAD","l1":"1 44543U 19061B   26202.36894043  .00000079  00000-0  00000-0 0  9992","l2":"2 44543  54.3962 181.5433 0006008 341.8135 129.6135  1.86227442 46435"},{"id":"44624","name":"EUTE 5W B","type":"PAYLOAD","l1":"1 44624U 19067A   26202.61514867 -.00000041  00000-0  00000-0 0  9999","l2":"2 44624   0.0744 324.8999 0003240 153.9630  36.9490  1.00271842 24784"},{"id":"44793","name":"BEIDOU 3M21","type":"PAYLOAD","l1":"1 44793U 19078A   26201.91091067 -.00000098  00000-0  00000-0 0  9994","l2":"2 44793  53.9028 298.6402 0005603  50.2813 309.8054  1.86227204 45279"},{"id":"44794","name":"BEIDOU 3M22","type":"PAYLOAD","l1":"1 44794U 19078B   26200.97683179 -.00000096  00000-0  00000-0 0  9999","l2":"2 44794  53.8770 298.6333 0003525  49.7600 310.3090  1.86227606 45266"},{"id":"44850","name":"COSMOS 2544 (GLONASS)","type":"PAYLOAD","l1":"1 44850U 19088A   26199.93909424 -.00000038  00000-0  00000-0 0  9996","l2":"2 44850  65.5828  72.6716 0012050 253.1294 106.8089  2.13102904 51392"},{"id":"44864","name":"BEIDOU 3M19","type":"PAYLOAD","l1":"1 44864U 19090A   26202.56573539 -.00000080  00000-0  00000-0 0  9999","l2":"2 44864  56.5895  61.6538 0016540 297.1019 245.8304  1.86231479 44870"},{"id":"44865","name":"BEIDOU 3M20","type":"PAYLOAD","l1":"1 44865U 19090B   26201.33798360 -.00000078  00000-0  00000-0 0  9992","l2":"2 44865  56.5902  61.7294 0013751 313.4468 215.9166  1.86231473 44835"},{"id":"45344","name":"BEIDOU 3 G2","type":"PAYLOAD","l1":"1 45344U 20017A   26202.64452186 -.00000140  00000-0  00000-0 0  9994","l2":"2 45344   2.9329  47.8340 0001994  57.2509 146.3712  1.00272603 23600"},{"id":"45358","name":"COSMOS 2545 (GLONASS)","type":"PAYLOAD","l1":"1 45358U 20018A   26201.07254601 -.00000083  00000-0  00000-0 0  9994","l2":"2 45358  64.3333 311.2627 0009901 230.0825 129.8537  2.13102411 49362"},{"id":"45807","name":"BEIDOU 3 G3","type":"PAYLOAD","l1":"1 45807U 20040A   26202.63817372 -.00000354  00000-0  00000-0 0  9992","l2":"2 45807   2.5301  67.5062 0002299 314.0816 258.0922  1.00273705 22410"},{"id":"45854","name":"NAVSTAR 79 (USA 304)","type":"PAYLOAD","l1":"1 45854U 20041A   26201.89744807 -.00000087  00000-0  00000-0 0  9997","l2":"2 45854  56.6926  27.6360 0065502 204.6753 340.8282  2.00557989 44719"},{"id":"46114","name":"GALAXY 30","type":"PAYLOAD","l1":"1 46114U 20056C   26202.59157523  .00000039  00000-0  00000-0 0  9990","l2":"2 46114   0.0168  64.3610 0002195  52.3892 270.5573  1.00270965 21630"},{"id":"46805","name":"COSMOS 2547 (GLONASS)","type":"PAYLOAD","l1":"1 46805U 20075A   26201.26230815  .00000083  00000-0  00000-0 0  9996","l2":"2 46805  64.6016 191.3717 0009466 239.9348 119.9732  2.13099966 44612"},{"id":"46826","name":"NAVSTAR 80 (USA 309)","type":"PAYLOAD","l1":"1 46826U 20078A   26202.40630071  .00000076  00000-0  00000-0 0  9999","l2":"2 46826  53.9766 209.3904 0074683 207.9552 322.5011  2.00565095 42191"},{"id":"48859","name":"NAVSTAR 81 (USA 319)","type":"PAYLOAD","l1":"1 48859U 21054A   26202.42302354 -.00000112  00000-0  00000-0 0  9996","l2":"2 48859  55.1560 331.0832 0026600 228.5821 140.3062  2.00567035 37442"},{"id":"49336","name":"QZS-1R","type":"PAYLOAD","l1":"1 49336U 21096A   26200.56101544 -.00000322  00000-0  00000-0 0  9997","l2":"2 49336  37.5263  79.1015 0755512 272.3091 279.1178  1.00244085 17338"},{"id":"49809","name":"GALILEO 27 (223)","type":"PAYLOAD","l1":"1 49809U 21116A   26201.37308213 -.00000107  00000-0  00000-0 0  9998","l2":"2 49809  57.1482 340.7789 0002482 195.0305 131.7493  1.70476368 28747"},{"id":"49810","name":"GALILEO 28 (224)","type":"PAYLOAD","l1":"1 49810U 21116B   26200.95392787 -.00000107  00000-0  00000-0 0  9992","l2":"2 49810  57.1487 340.7887 0001904 182.1498   0.0180  1.70476408 28769"},{"id":"52984","name":"COSMOS 2557 (GLONASS)","type":"PAYLOAD","l1":"1 52984U 22075A   26201.89567594 -.00000088  00000-0  00000-0 0  9995","l2":"2 52984  64.2766 313.2973 0010828 270.8513  89.0451  2.13102143 31439"},{"id":"54031","name":"COSMOS 2559 (GLONASS)","type":"PAYLOAD","l1":"1 54031U 22130A   26202.18464193 -.00000089  00000-0  00000-0 0  9997","l2":"2 54031  64.2489 313.3698 0013171 181.7048 178.3110  2.13101788 29411"},{"id":"54377","name":"COSMOS 2564 (GLONASS)","type":"PAYLOAD","l1":"1 54377U 22161A   26202.02773781  .00000090  00000-0  00000-0 0  9994","l2":"2 54377  64.7442 191.5883 0012178 224.7321 135.1739  2.13102069 28351"},{"id":"55268","name":"NAVSTAR 82 (USA 343)","type":"PAYLOAD","l1":"1 55268U 23009A   26201.60569105  .00000029  00000-0  00000-0 0  9994","l2":"2 55268  55.1257 147.2053 0005287 339.0004 198.4380  2.00569363 25910"},{"id":"56564","name":"BEIDOU 3 G4","type":"PAYLOAD","l1":"1 56564U 23066A   26202.64406707 -.00000279  00000-0  00000-0 0  9998","l2":"2 56564   0.4555 340.7614 0005101 183.1913 147.3753  1.00270914 11731"},{"id":"56759","name":"NVS-01","type":"PAYLOAD","l1":"1 56759U 23076A   26202.64198707 -.00000332  00000-0  00000-0 0  9993","l2":"2 56759   2.0868 242.7688 0002952  18.2288  39.0086  1.00275975 11466"},{"id":"57517","name":"COSMOS 2569 (GLONASS)","type":"PAYLOAD","l1":"1 57517U 23114A   26202.04001660 -.00000052  00000-0  00000-0 0  9993","l2":"2 57517  65.3216  71.4791 0009477 295.3484  64.6200  2.13103846 22988"},{"id":"58654","name":"BEIDOU 3 M28","type":"PAYLOAD","l1":"1 58654U 23207A   26202.12766076 -.00000082  00000-0  00000-0 0  9990","l2":"2 58654  55.7832  61.1582 0002229   8.8323 351.2326  1.86229790 17477"},{"id":"58655","name":"BEIDOU 3 M26","type":"PAYLOAD","l1":"1 58655U 23207B   26200.85124257 -.00000078  00000-0  00000-0 0  9993","l2":"2 58655  55.7843  61.1877 0001768 324.3681  35.6824  1.86229761 17437"}]}